FENGYUN 1C DEB          
1 31827U 99025CHR 17329.89698458  .00000690  00000-0  55059-3 0  9997
2 31827  97.6664  10.9870 0132886 219.5903 139.5498 13.89543261531328
